[{"OBJECT_NAME":"STARLINK-1047","OBJECT_ID":"2019-074AR","EPOCH":"2026-03-09T11:54:40.842720","MEAN_MOTION":15.32581056,"ECCENTRICITY":0.00022261,"INCLINATION":53.069,"RA_OF_ASC_NODE":146.9116,"ARG_OF_PERICENTER":203.7253,"MEAN_ANOMALY":156.3646,"EPHEMERIS_TYPE":0,"CLASSIFICATION_TYPE":"U","NORAD_CAT_ID":44752,"ELEMENT_SET_NO":999,"REV_AT_EPOCH":34931,"BSTAR":0.00039384285,"MEAN_MOTION_DOT":0.00012216,"MEAN_MOTION_DDOT":0},{"OBJECT_NAME":"YAOGAN-43 01A","OBJECT_ID":"2024-148A","EPOCH":"2026-03-10T00:09:07.136640","MEAN_MOTION":15.32738016,"ECCENTRICITY":0.00034906,"INCLINATION":35.0055,"RA_OF_ASC_NODE":53.2215,"ARG_OF_PERICENTER":348.6469,"MEAN_ANOMALY":11.4169,"EPHEMERIS_TYPE":0,"CLASSIFICATION_TYPE":"U","NORAD_CAT_ID":60458,"ELEMENT_SET_NO":999,"REV_AT_EPOCH":8720,"BSTAR":0.00060147276,"MEAN_MOTION_DOT":0.00019533,"MEAN_MOTION_DDOT":0}]
